{
    "links": {
        "self": "http://www.neowsapp.com/rest/v1/neo/3884029?api_key=iIulBulltgU6a56xZRHN4H3l9WmuAYTsLGpBGhQ2"
    },
    "id": "3884029",
    "neo_reference_id": "3884029",
    "name": "(2019 UV9)",
    "designation": "2019 UV9",
    "nasa_jpl_url": "http://ssd.jpl.nasa.gov/sbdb.cgi?sstr=3884029",
    "absolute_magnitude_h": 25.7,
    "estimated_diameter": {
        "kilometers": {
            "estimated_diameter_min": 0.0192555078,
            "estimated_diameter_max": 0.0430566244
        },
        "meters": {
            "estimated_diameter_min": 19.2555078188,
            "estimated_diameter_max": 43.0566244241
        },
        "miles": {
            "estimated_diameter_min": 0.0119648141,
            "estimated_diameter_max": 0.0267541378
        },
        "feet": {
            "estimated_diameter_min": 63.1742402722,
            "estimated_diameter_max": 141.2618956756
        }
    },
    "is_potentially_hazardous_asteroid": false,
    "close_approach_data": [
        {
            "close_approach_date": "2019-10-31",
            "close_approach_date_full": "2019-Oct-31 15:21",
            "epoch_date_close_approach": 1572535260000,
            "relative_velocity": {
                "kilometers_per_second": "12.1790448155",
                "kilometers_per_hour": "43844.5613357604",
                "miles_per_hour": "27243.3053477673"
            },
            "miss_distance": {
                "astronomical": "0.0715049793",
                "lunar": "27.8154369477",
                "kilometers": "10696992.597674091",
                "miles": "6646802.9838448158"
            },
            "orbiting_body": "Earth"
        }
    ],
    "orbital_data": {
        "orbit_id": "2",
        "orbit_determination_date": "2019-10-30 08:04:22",
        "first_observation_date": "2019-10-24",
        "last_observation_date": "2019-10-30",
        "data_arc_in_days": 6,
        "observations_used": 25,
        "orbit_uncertainty": "8",
        "minimum_orbit_intersection": ".0693676",
        "jupiter_tisserand_invariant": "3.953",
        "epoch_osculation": "2458782.5",
        "eccentricity": ".4238404241820783",
        "semi_major_axis": "1.757926259349287",
        "inclination": "19.40803857507894",
        "ascending_node_longitude": "32.15577954907991",
        "orbital_period": "851.3328804642648",
        "perihelion_distance": "1.012846047905871",
        "perihelion_argument": "35.29434348489576",
        "aphelion_distance": "2.503006470792703",
        "perihelion_time": "2458815.294901528113",
        "mean_anomaly": "346.1321407629853",
        "mean_motion": ".4228663173489529",
        "equinox": "J2000",
        "orbit_class": {
            "orbit_class_type": "APO",
            "orbit_class_description": "Near-Earth asteroid orbits which cross the Earth’s orbit similar to that of 1862 Apollo",
            "orbit_class_range": "a (semi-major axis) > 1.0 AU; q (perihelion) < 1.017 AU"
        }
    },
    "is_sentry_object": false
}